{
  "type": "FeatureCollection",
  "features": [
    {
      "type": "Feature",
      "properties": {
        "norad_id": 30080,
        "name": "FENGYUN 1C DEB",
        "group": "fengyun-1c-debris",
        "lat": 79.64626267323585,
        "lon": -84.28557578037885,
        "alt_km": 773.9410480119313,
        "timestamp": "2025-12-18T07:01:54.863390+00:00",
        "meta_object_name": "FENGYUN 1C DEB",
        "meta_object_id": "1999-025QH",
        "meta_epoch": "2025-12-17T17:50:13.885728",
        "meta_mean_motion": 14.1082725,
        "meta_eccentricity": 0.01336816,
        "meta_inclination": 98.6986,
        "meta_ra_of_asc_node": 332.1062,
        "meta_arg_of_pericenter": 46.4812,
        "meta_mean_anomaly": 126.175,
        "meta_ephemeris_type": 0,
        "meta_classification_type": "U",
        "meta_norad_cat_id": 30080,
        "meta_element_set_no": 999,
        "meta_rev_at_epoch": 97308,
        "meta_bstar": 0.00023814539,
        "meta_mean_motion_dot": 4.22e-06,
        "meta_mean_motion_ddot": 0,
        "tle_line1": "1 30080U 99025QH  25351.74321627  .00000422  00000+0  23815-3 0  9993",
        "tle_line2": "2 30080  98.6986 332.1062 0133681  46.4812 126.1750 14.10827250973082"
      },
      "geometry": {
        "type": "Point",
        "coordinates": [
          -84.28557578037885,
          79.64626267323585
        ]
      }
    },
    {
      "type": "Feature",
      "properties": {
        "norad_id": 30081,
        "name": "FENGYUN 1C DEB",
        "group": "fengyun-1c-debris",
        "lat": 29.57359289739572,
        "lon": -16.701691004134076,
        "alt_km": 875.5603814428314,
        "timestamp": "2025-12-18T07:01:54.863400+00:00",
        "meta_object_name": "FENGYUN 1C DEB",
        "meta_object_id": "1999-025QJ",
        "meta_epoch": "2025-12-17T18:00:22.316256",
        "meta_mean_motion": 13.98285973,
        "meta_eccentricity": 0.00758033,
        "meta_inclination": 98.9231,
        "meta_ra_of_asc_node": 347.8854,
        "meta_arg_of_pericenter": 325.3754,
        "meta_mean_anomaly": 213.3492,
        "meta_ephemeris_type": 0,
        "meta_classification_type": "U",
        "meta_norad_cat_id": 30081,
        "meta_element_set_no": 999,
        "meta_rev_at_epoch": 96424,
        "meta_bstar": 0.00050013785,
        "meta_mean_motion_dot": 6.88e-06,
        "meta_mean_motion_ddot": 0,
        "tle_line1": "1 30081U 99025QJ  25351.75025829  .00000688  00000+0  50014-3 0  9995",
        "tle_line2": "2 30081  98.9231 347.8854 0075803 325.3754 213.3492 13.98285973964241"
      },
      "geometry": {
        "type": "Point",
        "coordinates": [
          -16.701691004134076,
          29.57359289739572
        ]
      }
    },
    {
      "type": "Feature",
      "properties": {
        "norad_id": 30082,
        "name": "FENGYUN 1C DEB",
        "group": "fengyun-1c-debris",
        "lat": 80.94386160874426,
        "lon": -155.99592667440922,
        "alt_km": 487.90223508096824,
        "timestamp": "2025-12-18T07:01:54.863410+00:00",
        "meta_object_name": "FENGYUN 1C DEB",
        "meta_object_id": "1999-025QK",
        "meta_epoch": "2025-12-17T21:08:07.342656",
        "meta_mean_motion": 15.15333639,
        "meta_eccentricity": 0.00700308,
        "meta_inclination": 98.8188,
        "meta_ra_of_asc_node": 280.4434,
        "meta_arg_of_pericenter": 149.125,
        "meta_mean_anomaly": 211.4126,
        "meta_ephemeris_type": 0,
        "meta_classification_type": "U",
        "meta_norad_cat_id": 30082,
        "meta_element_set_no": 999,
        "meta_rev_at_epoch": 1371,
        "meta_bstar": 0.00092280338,
        "meta_mean_motion_dot": 0.0001845,
        "meta_mean_motion_ddot": 0,
        "tle_line1": "1 30082U 99025QK  25351.88064054  .00018450  00000+0  92280-3 0  9990",
        "tle_line2": "2 30082  98.8188 280.4434 0070030 149.1250 211.4126 15.15333639 13712"
      },
      "geometry": {
        "type": "Point",
        "coordinates": [
          -155.99592667440922,
          80.94386160874426
        ]
      }
    },
    {
      "type": "Feature",
      "properties": {
        "norad_id": 30086,
        "name": "FENGYUN 1C DEB",
        "group": "fengyun-1c-debris",
        "lat": -69.14506199794951,
        "lon": 50.18227411751851,
        "alt_km": 931.9555403745426,
        "timestamp": "2025-12-18T07:01:54.863420+00:00",
        "meta_object_name": "FENGYUN 1C DEB",
        "meta_object_id": "1999-025QP",
        "meta_epoch": "2025-12-17T16:33:42.816960",
        "meta_mean_motion": 14.03837075,
        "meta_eccentricity": 0.0061864,
        "meta_inclination": 98.91,
        "meta_ra_of_asc_node": 25.2746,
        "meta_arg_of_pericenter": 120.9199,
        "meta_mean_anomaly": 2.5737,
        "meta_ephemeris_type": 0,
        "meta_classification_type": "U",
        "meta_norad_cat_id": 30086,
        "meta_element_set_no": 999,
        "meta_rev_at_epoch": 96765,
        "meta_bstar": 0.00050765237,
        "meta_mean_motion_dot": 7.71e-06,
        "meta_mean_motion_ddot": 0,
        "tle_line1": "1 30086U 99025QP  25351.69007890  .00000771  00000+0  50765-3 0  9997",
        "tle_line2": "2 30086  98.9100  25.2746 0061864 120.9199   2.5737 14.03837075967653"
      },
      "geometry": {
        "type": "Point",
        "coordinates": [
          50.18227411751851,
          -69.14506199794951
        ]
      }
    },
    {
      "type": "Feature",
      "properties": {
        "norad_id": 30087,
        "name": "FENGYUN 1C DEB",
        "group": "fengyun-1c-debris",
        "lat": 67.38778832447036,
        "lon": -134.88875864503524,
        "alt_km": 602.24326575336,
        "timestamp": "2025-12-18T07:01:54.863430+00:00",
        "meta_object_name": "FENGYUN 1C DEB",
        "meta_object_id": "1999-025QQ",
        "meta_epoch": "2025-12-17T16:02:20.657760",
        "meta_mean_motion": 14.35712088,
        "meta_eccentricity": 0.02304017,
        "meta_inclination": 98.3796,
        "meta_ra_of_asc_node": 23.7782,
        "meta_arg_of_pericenter": 106.716,
        "meta_mean_anomaly": 17.097,
        "meta_ephemeris_type": 0,
        "meta_classification_type": "U",
        "meta_norad_cat_id": 30087,
        "meta_element_set_no": 999,
        "meta_rev_at_epoch": 98766,
        "meta_bstar": 0.000198916,
        "meta_mean_motion_dot": 7.29e-06,
        "meta_mean_motion_ddot": 0,
        "tle_line1": "1 30087U 99025QQ  25351.66829465  .00000729  00000+0  19892-3 0  9994",
        "tle_line2": "2 30087  98.3796  23.7782 0230401 106.7160  17.0970 14.35712088987661"
      },
      "geometry": {
        "type": "Point",
        "coordinates": [
          -134.88875864503524,
          67.38778832447036
        ]
      }
    },
    {
      "type": "Feature",
      "properties": {
        "norad_id": 30088,
        "name": "FENGYUN 1C DEB",
        "group": "fengyun-1c-debris",
        "lat": 13.988483749995796,
        "lon": -25.69210022153283,
        "alt_km": 887.2788974116675,
        "timestamp": "2025-12-18T07:01:54.863440+00:00",
        "meta_object_name": "FENGYUN 1C DEB",
        "meta_object_id": "1999-025QR",
        "meta_epoch": "2025-12-17T21:15:56.557728",
        "meta_mean_motion": 14.35923334,
        "meta_eccentricity": 0.02007801,
        "meta_inclination": 98.3546,
        "meta_ra_of_asc_node": 336.0112,
        "meta_arg_of_pericenter": 232.0107,
        "meta_mean_anomaly": 198.5451,
        "meta_ephemeris_type": 0,
        "meta_classification_type": "U",
        "meta_norad_cat_id": 30088,
        "meta_element_set_no": 999,
        "meta_rev_at_epoch": 98746,
        "meta_bstar": 0.00026421742,
        "meta_mean_motion_dot": 9.14e-06,
        "meta_mean_motion_ddot": 0,
        "tle_line1": "1 30088U 99025QR  25351.88607127  .00000914  00000+0  26422-3 0  9991",
        "tle_line2": "2 30088  98.3546 336.0112 0200780 232.0107 198.5451 14.35923334987468"
      },
      "geometry": {
        "type": "Point",
        "coordinates": [
          -25.69210022153283,
          13.988483749995796
        ]
      }
    },
    {
      "type": "Feature",
      "properties": {
        "norad_id": 30089,
        "name": "FENGYUN 1C DEB",
        "group": "fengyun-1c-debris",
        "lat": -64.7196069468331,
        "lon": -82.79881698690228,
        "alt_km": 806.7848020174815,
        "timestamp": "2025-12-18T07:01:54.863450+00:00",
        "meta_object_name": "FENGYUN 1C DEB",
        "meta_object_id": "1999-025QS",
        "meta_epoch": "2025-12-17T16:30:51.738048",
        "meta_mean_motion": 14.3031118,
        "meta_eccentricity": 0.00734944,
        "meta_inclination": 98.9035,
        "meta_ra_of_asc_node": 257.197,
        "meta_arg_of_pericenter": 195.4158,
        "meta_mean_anomaly": 224.6346,
        "meta_ephemeris_type": 0,
        "meta_classification_type": "U",
        "meta_norad_cat_id": 30089,
        "meta_element_set_no": 999,
        "meta_rev_at_epoch": 98550,
        "meta_bstar": 0.00018153762,
        "meta_mean_motion_dot": 4.39e-06,
        "meta_mean_motion_ddot": 0,
        "tle_line1": "1 30089U 99025QS  25351.68809882  .00000439  00000+0  18154-3 0  9997",
        "tle_line2": "2 30089  98.9035 257.1970 0073494 195.4158 224.6346 14.30311180985503"
      },
      "geometry": {
        "type": "Point",
        "coordinates": [
          -82.79881698690228,
          -64.7196069468331
        ]
      }
    }
  ]
}